[{"OBJECT_NAME":"STARLINK-35798","OBJECT_ID":"2025-247AD","EPOCH":"2026-03-09T14:19:18.221952","MEAN_MOTION":15.3019642,"ECCENTRICITY":8.11e-5,"INCLINATION":53.16,"RA_OF_ASC_NODE":191.5694,"ARG_OF_PERICENTER":69.5956,"MEAN_ANOMALY":290.5132,"EPHEMERIS_TYPE":0,"CLASSIFICATION_TYPE":"U","NORAD_CAT_ID":66292,"ELEMENT_SET_NO":999,"REV_AT_EPOCH":2101,"BSTAR":0.00085285,"MEAN_MOTION_DOT":0.00024982,"MEAN_MOTION_DDOT":0},{"OBJECT_NAME":"CZ-6A DEB","OBJECT_ID":"2022-151QV","EPOCH":"2026-03-09T04:36:08.895168","MEAN_MOTION":15.24642942,"ECCENTRICITY":0.00273347,"INCLINATION":98.639,"RA_OF_ASC_NODE":154.2763,"ARG_OF_PERICENTER":174.5721,"MEAN_ANOMALY":185.5815,"EPHEMERIS_TYPE":0,"CLASSIFICATION_TYPE":"U","NORAD_CAT_ID":54908,"ELEMENT_SET_NO":999,"REV_AT_EPOCH":17373,"BSTAR":0.0098290719,"MEAN_MOTION_DOT":0.00253193,"MEAN_MOTION_DDOT":0}]
